     2.100          NAVIGATION                              RINEX VERSION / TYPE
fic2rin                                 04/21/2010 00:27:15 PGM / RUN BY / DATE
                                                            END OF HEADER
29 10  4 21  0  0  0.0  .114144291729D-03  .284217094304D-11  .000000000000D+00
     .740000000000D+02 -.587500000000D+01  .450483050142D-08  .308001332751D+01
    -.404193997383D-06  .304491445422D-02  .899285078049D-05  .515375506020D+04
     .259200000000D+06 -.502914190292D-07 -.102089696615D+01  .000000000000D+00
     .960288163331D+00  .204500000000D+03 -.130250902703D+01 -.787247077715D-08
     .221080637467D-09  .100000000000D+01  .158000000000D+04  .000000000000D+00
     .240000000000D+01  .000000000000D+00 -.884756445885D-08  .740000000000D+02
     .252006000000D+06  .400000000000D+01
30 10  4 21  0  0  0.0  .235514715314D-03  .341060513165D-11  .000000000000D+00
     .330000000000D+02 -.818437500000D+02  .460947771753D-08  .142154237601D+01
    -.455789268017D-05  .120882188203D-01  .821240246296D-05  .515375256348D+04
     .259200000000D+06 -.143423676491D-06 -.214288904708D+01 -.271946191788D-06
     .955545744259D+00  .219843750000D+03  .147525842671D+01 -.814926802115D-08
     .214294640518D-11  .100000000000D+01  .158000000000D+04  .000000000000D+00
     .240000000000D+01  .000000000000D+00 -.791624188423D-08  .330000000000D+02
     .252006000000D+06  .400000000000D+01
31 10  4 21  0  0  0.0 -.410610809922D-04  .216004991671D-11  .000000000000D+00
     .134000000000D+03 -.361875000000D+02  .439661170795D-08 -.250787748771D+01
    -.170432031155D-05  .748568493873D-02  .362470746040D-05  .515367154121D+04
     .259200000000D+06 -.484287738800D-07  .313943865740D+01  .856816768646D-07
     .976773860312D+00  .318843750000D+03 -.106082249773D+01 -.809105131048D-08
     .214294640518D-11  .100000000000D+01  .158000000000D+04  .000000000000D+00
     .240000000000D+01  .000000000000D+00 -.130385160446D-07  .134000000000D+03
     .252006000000D+06  .400000000000D+01
32 10  4 21  0  0  0.0  .469526275992D-04 -.852651282912D-11  .000000000000D+00
     .250000000000D+02  .620312500000D+02  .436911056242D-08 -.168973947517D+01
     .334158539772D-05  .126581023214D-01  .952929258347D-05  .515376008987D+04
     .259200000000D+06 -.279396772385D-06  .112828100191D+01  .108033418655D-06
     .959561095971D+00  .199406250000D+03 -.992706779068D+00 -.799819029959D-08
    -.209651589973D-09  .100000000000D+01  .158000000000D+04  .000000000000D+00
     .240000000000D+01  .000000000000D+00 -.325962901115D-08  .250000000000D+02
     .252006000000D+06  .400000000000D+01
13 10  4 20 23 58 40.0  .305148307234D-03 -.341060513165D-12  .000000000000D+00
     .220000000000D+02  .824062500000D+02  .383515974980D-08  .409333768109D-01
     .407360494137D-05  .439150759485D-02  .682659447193D-05  .515356195259D+04
     .259120000000D+06 -.931322574615D-08  .215808817198D+01 -.111758708954D-07
     .992979218302D+00  .264031250000D+03  .166883792779D+01 -.794961684774D-08
     .164649715464D-09  .100000000000D+01  .158000000000D+04  .000000000000D+00
     .240000000000D+01  .000000000000D+00 -.111758708954D-07  .220000000000D+02
     .252456000000D+06  .400000000000D+01
12 10  4 20 23 59 44.0 -.124334823340D-03  .443378667114D-11  .000000000000D+00
     .160000000000D+02 -.760937500000D+02  .419374611493D-08 -.244662759177D+01
    -.405684113503D-05  .355497549754D-02  .823847949505D-05  .515371509361D+04
     .259184000000D+06 -.104308128357D-06 -.208987576175D+01  .502914190292D-07
     .970247610136D+00  .223593750000D+03 -.484180211935D+00 -.787282793488D-08
    -.964325882329D-11  .100000000000D+01  .158000000000D+04  .000000000000D+00
     .240000000000D+01  .000000000000D+00 -.121071934700D-07  .160000000000D+02
     .252486000000D+06  .400000000000D+01
18 10  4 20 23 59 44.0  .631776638329D-04  .250111042988D-11  .000000000000D+00
     .110000000000D+02  .453437500000D+02  .492841957417D-08  .177750254498D+01
     .239349901676D-05  .111844915664D-01  .884942710400D-05  .515368876839D+04
     .259184000000D+06 -.275671482086D-06  .106572133054D+01 -.149011611938D-07
     .937797284187D+00  .195593750000D+03 -.234648489955D+01 -.826855870437D-08
    -.197508227010D-09  .100000000000D+01  .158000000000D+04  .000000000000D+00
     .240000000000D+01  .000000000000D+00 -.107102096081D-07  .110000000000D+02
     .252576000000D+06  .400000000000D+01
20 10  4 20 23 59 44.0  .573964789510D-04 -.568434188608D-12  .000000000000D+00
     .220000000000D+02  .401250000000D+02  .493234830925D-08  .192064536030D+01
     .208802521229D-05  .433315942064D-02  .914558768272D-05  .515362846947D+04
     .259184000000D+06  .260770320892D-07  .101177745815D+01 -.150874257088D-06
     .937684927690D+00  .189562500000D+03  .131696645538D+01 -.818641242551D-08
    -.253939149013D-09  .100000000000D+01  .158000000000D+04  .000000000000D+00
     .240000000000D+01  .000000000000D+00 -.791624188423D-08  .220000000000D+02
     .254136000000D+06  .400000000000D+01
15 10  4 20 23 59 44.0 -.284005422145D-03  .500222085975D-11  .000000000000D+00
     .000000000000D+00  .649375000000D+02  .467090884782D-08 -.225641594901D+00
     .345148146152D-05  .246900261845D-02  .586360692978D-05  .515375310898D+04
     .259184000000D+06 -.745058059692D-08  .207361181682D+01 -.335276126862D-07
     .953870981012D+00  .261281250000D+03 -.185398977286D+00 -.828391648694D-08
     .105004373854D-09  .100000000000D+01  .158000000000D+04  .000000000000D+00
     .240000000000D+01  .000000000000D+00 -.977888703346D-08  .000000000000D+00
     .255876000000D+06  .400000000000D+01
